#cP2012 10 22  0  0  0.00000000      96 ORBIT IGb08 HLM  IGS
## 1711  86400.00000000   900.00000000 56222 0.0000000000000
+   32   G01G02G03G04G05G06G07G08G09G10G11G12G13G14G15G16G17
+        G18G19G20G21G22G23G24G25G26G27G28G29G30G31G32  0  0
+          0  0  0  0  0  0  0  0  0  0  0  0  0  0  0  0  0
+          0  0  0  0  0  0  0  0  0  0  0  0  0  0  0  0  0
+          0  0  0  0  0  0  0  0  0  0  0  0  0  0  0  0  0
++         2  2  2  2  2  2  2  2  2  2  2  2  2  2  2  2  2
++         2  2  2  2  2  2  4  2  2  0  2  2  2  2  2  0  0
++         0  0  0  0  0  0  0  0  0  0  0  0  0  0  0  0  0
++         0  0  0  0  0  0  0  0  0  0  0  0  0  0  0  0  0
++         0  0  0  0  0  0  0  0  0  0  0  0  0  0  0  0  0
%c G  cc GPS ccc cccc cccc cccc cccc ccccc ccccc ccccc ccccc
%c cc cc ccc ccc cccc cccc cccc cccc ccccc ccccc ccccc ccccc
%f  1.2500000  1.025000000  0.00000000000  0.000000000000000
%f  0.0000000  0.000000000  0.00000000000  0.000000000000000
%i    0    0    0    0      0      0      0      0         0
%i    0    0    0    0      0      0      0      0         0
/* FINAL ORBIT COMBINATION FROM WEIGHTED AVERAGE OF:        
/* cod cof emr esa gfz grg jpl mit ngs sio                  
/* REFERENCED TO IGS TIME (IGST) AND TO WEIGHTED MEAN POLE: 
/* PCV:IGS08_1711 OL/AL:FES2004  NONE     Y  ORB:CMB CLK:CMB
*  2012 10 22  9  0  0.00000000
PG01 -12634.967459 -13758.467458 -18922.096177    278.894676  5  3  5  98       
PG02 -10165.600669  14351.614305  19913.062628    406.670717  4  7  4 107       
PG03   8096.384106 -24915.021763  -3981.051252    117.904451  5  4  5 103       
PG04 -23588.189874   6650.545904  10335.921252     23.475401  4  4  4 104       
PG05  -1212.454267  21466.984894  15479.421573   -361.253100  6  6  1 109       
PG06  13556.005765 -22604.312100   1264.984470    478.344942  5  3  5 117       
PG07 -24442.946810  -7009.547665   8203.148888    136.358714  7  7  3  99       
PG08 -26450.715850   -865.754032  -4630.477298      2.492304  5  5  6  90       
PG09   7494.118503  14526.357226 -21471.010254    194.157750  5  3  4  94       
PG10 -14353.597053   5758.186774  21336.406630    -56.021081  6  5  5 116       
PG11  -7033.459632 -15628.183605 -20735.285792   -315.329421  6  4  6  98       
PG12  11648.877286  23986.216738   -108.167012     97.498268  9  8  4 113       
PG13 -13493.047640  -6333.578673  21858.746276    172.668232  7  6  5 119       
PG14  19608.737759 -10484.284357 -14217.737002    215.318675  4  6  5 106       
PG15   -543.239716  21885.448166 -14882.072796    -97.852499  8  5  5 106       
PG16   1810.425923 -21095.067046  15831.270425   -248.351062  7  3  4  99       
PG17 -19409.547422  11117.125495 -13947.569482     85.666176  4  7  7 111       
PG18  18564.776841  11179.641090 -15205.260817    220.884519  7  8  5 130       
PG19   4572.946651 -21967.951771 -13962.842620   -315.168838  4  5  6  85       
PG20 -14253.641744 -22412.199224   1283.766940     71.192645  6  4  5  98       
PG21  25890.436568   5199.361298   5425.349473   -257.427954  6  6  4  93       
PG22  15700.643373  -3791.006790 -20909.392740    149.828859  5  6  4 125       
PG23  -5298.010779 -17064.333707  19582.963796    151.847157  6  7  6 119       
PG24 -18260.192800 -11675.612360  15761.749966      2.089981 11  8 10 127       
PG25  17496.981942  16642.586356  11093.763547     47.566029  6  6  6  90       
PG26 -11770.015804  22783.038182  -6765.744598   -237.535672  6  3  2  92       
PG27  11894.264557  -9118.179703  21775.328112 999999.999999
PG28 -15835.633851  -1178.944268 -20768.815610    197.351489  4  5  4 108       
PG29  12201.043109   9016.069002  21853.004797    368.809695  7  6  6 104       
PG30   8722.703549 -13286.372206  20927.215326   -353.424597  4  6  6 119       
PG31  21369.767269  -8030.828014  13977.506667    282.191302  4  5  4 108       
PG32  -5851.989544 -25405.229147  -6131.694775   -500.607315  8  6  4  96       
*  2012 10 22  9 15  0.00000000
PG01 -10402.777279 -13851.833430 -20167.862249    278.896159  5  3  5  95       
PG02 -12367.436829  14213.936431  18674.028946    406.671704  4  7  4  89       
PG03   8514.573650 -25007.516394  -1189.976634    117.909054  5  4  5 107       
PG04 -24653.675199   6368.615052   7808.912790     23.485717  4  4  3 102       
PG05  -2313.472133  19920.733463  17321.883780   -361.255450  6  5     98       
PG06  13722.737855 -22183.868607   4073.070840    478.336290  4  3  5 121       
PG07 -23366.547168  -7152.008002  10791.105093    136.362786  7  7  4  92       
PG08 -26805.939480  -1008.461914  -1767.451107      2.492078  5  5  7  94       
PG09   5119.229153  14562.120686 -22156.689586    194.161336  5  2  4  97       
PG10 -15519.681100   3565.246211  21037.622617    -56.023333  6  5  5 112       
PG11  -4796.408250 -16265.486092 -20858.313196   -315.332650  6  4  7 117       
PG12  11408.156591  23917.268560  -2986.742968     97.499995  9  8  4 102       
PG13 -12010.390829  -8387.468160  22020.642391    172.665406  7  6  5 108       
PG14  18739.059980  -8922.743272 -16290.540186    215.319640  5  6  4 112       
PG15  -1532.500693  23154.926167 -12714.085041    -97.853328  8  4  5 103       
PG16   2808.968367 -19440.337699  17719.597975   -248.351588  6  3  4  91       
PG17 -18631.008159   9534.387975 -16022.580088     85.662776  4  7  7 116       
PG18  19169.088443  12762.219901 -13152.591693    220.885966  8  8  5 126       
PG19   5615.812772 -23026.834070 -11638.338597   -315.172026  3  4  6  82       
PG20 -13970.281977 -22596.541409  -1504.190649     71.193760  6  3  4  79       
PG21  25184.115058   5462.547376   8050.268425   -257.429741  6  6  4  94       
PG22  16808.434687  -1650.646766 -20335.433108    149.829509  6  6  4 125       
PG23  -4051.008433 -18836.493730  18167.939642    151.843796  6  6  6 117       
PG24 -16386.710898 -11825.592891  17601.998910      2.090531 11  9 10 124       
PG25  17886.142790  17716.576533   8527.404147     47.567548  7  6  6  71       
PG26 -12258.577092  23104.262375  -3934.769752   -237.523603  6  4  2  89       
PG27  13134.885820  -6918.889678  21886.232787 999999.999999
PG28 -16854.095053  -3379.980408 -19746.630257    197.354456  4  5  4 100       
PG29  10832.980442  11079.276470  21627.193386    368.813170  7  6  6 109       
PG30  10203.269942 -11273.130343  21422.672726   -353.408643  4  6  6 120       
PG31  22790.470534  -7847.715641  11627.268191    282.193512  5  5  5 108       
PG32  -5281.616596 -24715.926274  -8766.622503   -500.610588  8  7  4  87       
*  2012 10 22  9 30  0.00000000
PG01  -8056.974922 -14067.729674 -21067.613067    278.897639  6  3  5  96       
PG02 -14420.428177  14171.265980  17112.484696    406.672564  4  7  4 107       
PG03   8827.004199 -24818.983051   1621.801647    117.914090  5  4  5 105       
PG04 -25438.312374   6126.815310   5148.576834     23.495733  4  5  4 106       
PG05  -3594.357508  18271.152263  18864.226691   -361.257949  6  5    100       
PG06  13781.350965 -21484.448110   6809.797419    478.327260  5  3  5 119       
PG07 -22018.157904  -7363.458523  13196.498711    136.366783  7  7  4 107       
PG08 -26847.184957  -1112.695314   1124.927547      2.492194  5  5  7  69       
PG09   2696.269340  14737.120551 -22479.544387    194.163307  5  2  4 112       
PG10 -16760.790016   1483.164203  20369.592197    -56.025450  6  5  5 122       
PG11  -2590.104307 -16994.488275 -20635.129738   -315.336458  6  4  7 108       
PG12  10996.009102  23586.861788  -5814.523486     97.501592  8  8  5 119       
PG13 -10644.902045 -10518.291484  21798.824696    172.663067  7  6  5 115       
PG14  17841.333883  -7126.615682 -18077.380163    215.320320  6  7  4 111       
PG15  -2346.954604  24239.052881 -10324.815544    -97.853901  7  4  5  99       
PG16   3995.483746 -17673.848224  19299.327360   -248.352183  6  4  4  94       
PG17 -17827.414251   7720.608511 -17815.482217     85.659482  4  7  7 116       
PG18  19716.210586  14103.167146 -10872.509793    220.887761  8  8  5 121       
PG19   6457.045156 -23904.798915  -9110.008956   -315.175048  3  4  6  96       
PG20 -13515.937606 -22539.313848  -4266.414312     71.194543  6  3  4 101       
PG21  24210.381335   5770.036037  10543.273626   -257.431808  7  5  4  92       
PG22  17967.801923    362.465788 -19406.550121    149.830279  6  7  4 125       
PG23  -2977.814000 -20514.752742  16437.525362    151.840266  6  6  5 121       
PG24 -14335.847288 -12086.021448  19147.367560      2.092467 11  9 10 127       
PG25  18167.992867  18518.080795   5814.604262     47.569071  7  6  6  62       
PG26 -12560.245159  23173.661511  -1035.285403   -237.511597  6  4  2 110       
PG27  14486.683577  -4798.998465  21615.678405 999999.999999
PG28 -17919.199223  -5397.863834 -18369.682344    197.357516  4  5  4 121       
PG29   9598.933182  13171.264294  21031.132887    368.816803  7  6  6 112       
PG30  11807.391137  -9310.432611  21537.211511   -353.392434  3  6  6 120       
PG31  23944.705289  -7735.402508   9081.399846    282.195618  6  5  5 112       
PG32  -4539.559947 -23802.348860 -11253.840839   -500.613902  7  7  4 101       
EOF
